{
  "type": "FeatureCollection",
  "features": [
    {
      "type": "Feature",
      "properties": {
        "norad_id": 19071,
        "name": "OSCAR 32",
        "group": "nnss",
        "lat": -86.24091516236955,
        "lon": -167.9081048619471,
        "alt_km": 1270.8085475361613,
        "timestamp": "2025-12-27T12:55:14.773879+00:00",
        "meta_object_name": "OSCAR 32",
        "meta_object_id": "1988-033B",
        "meta_epoch": "2025-12-27T08:02:26.272320",
        "meta_mean_motion": 13.27956102,
        "meta_eccentricity": 0.01893608,
        "meta_inclination": 90.3208,
        "meta_ra_of_asc_node": 16.977,
        "meta_arg_of_pericenter": 126.3944,
        "meta_mean_anomaly": 246.9285,
        "meta_ephemeris_type": 0,
        "meta_classification_type": "U",
        "meta_norad_cat_id": 19071,
        "meta_element_set_no": 999,
        "meta_rev_at_epoch": 82459,
        "meta_bstar": 0.00014086952,
        "meta_mean_motion_dot": 8e-07,
        "meta_mean_motion_ddot": 0,
        "tle_line1": "1 19071U 88033B   25361.33502630  .00000080  00000+0  14087-3 0  9999",
        "tle_line2": "2 19071  90.3208  16.9770 0189360 126.3944 246.9285 13.27956102824598"
      },
      "geometry": {
        "type": "Point",
        "coordinates": [
          -167.9081048619471,
          -86.24091516236955
        ]
      }
    },
    {
      "type": "Feature",
      "properties": {
        "norad_id": 19223,
        "name": "NOVA 2",
        "group": "nnss",
        "lat": -15.006233307537734,
        "lon": -101.74263974591366,
        "alt_km": 1195.3517617626794,
        "timestamp": "2025-12-27T12:55:14.773908+00:00",
        "meta_object_name": "NOVA 2",
        "meta_object_id": "1988-052A",
        "meta_epoch": "2025-12-27T04:56:26.312640",
        "meta_mean_motion": 13.22937732,
        "meta_eccentricity": 0.00293738,
        "meta_inclination": 89.9862,
        "meta_ra_of_asc_node": 78.2541,
        "meta_arg_of_pericenter": 336.6486,
        "meta_mean_anomaly": 75.7931,
        "meta_ephemeris_type": 0,
        "meta_classification_type": "U",
        "meta_norad_cat_id": 19223,
        "meta_element_set_no": 999,
        "meta_rev_at_epoch": 81139,
        "meta_bstar": 0.00015382382,
        "meta_mean_motion_dot": 7.3e-07,
        "meta_mean_motion_ddot": 0,
        "tle_line1": "1 19223U 88052A   25361.20586010  .00000073  00000+0  15382-3 0  9990",
        "tle_line2": "2 19223  89.9862  78.2541 0029373 336.6486  75.7931 13.22937732811391"
      },
      "geometry": {
        "type": "Point",
        "coordinates": [
          -101.74263974591366,
          -15.006233307537734
        ]
      }
    },
    {
      "type": "Feature",
      "properties": {
        "norad_id": 19419,
        "name": "OSCAR 25",
        "group": "nnss",
        "lat": -59.447758413038365,
        "lon": -159.76519383589408,
        "alt_km": 1048.9847404115526,
        "timestamp": "2025-12-27T12:55:14.773926+00:00",
        "meta_object_name": "OSCAR 25",
        "meta_object_id": "1988-074A",
        "meta_epoch": "2025-12-27T03:08:34.260576",
        "meta_mean_motion": 13.42625944,
        "meta_eccentricity": 0.00953655,
        "meta_inclination": 90.0336,
        "meta_ra_of_asc_node": 20.2904,
        "meta_arg_of_pericenter": 204.27,
        "meta_mean_anomaly": 226.4208,
        "meta_ephemeris_type": 0,
        "meta_classification_type": "U",
        "meta_norad_cat_id": 19419,
        "meta_element_set_no": 999,
        "meta_rev_at_epoch": 82833,
        "meta_bstar": 0.00015106855,
        "meta_mean_motion_dot": 9.7e-07,
        "meta_mean_motion_ddot": 0,
        "tle_line1": "1 19419U 88074A   25361.13095209  .00000097  00000+0  15107-3 0  9999",
        "tle_line2": "2 19419  90.0336  20.2904 0095365 204.2700 226.4208 13.42625944828335"
      },
      "geometry": {
        "type": "Point",
        "coordinates": [
          -159.76519383589408,
          -59.447758413038365
        ]
      }
    },
    {
      "type": "Feature",
      "properties": {
        "norad_id": 19420,
        "name": "OSCAR 31",
        "group": "nnss",
        "lat": 60.55239583241965,
        "lon": -159.2931726770609,
        "alt_km": 1078.4863451469946,
        "timestamp": "2025-12-27T12:55:14.773938+00:00",
        "meta_object_name": "OSCAR 31",
        "meta_object_id": "1988-074B",
        "meta_epoch": "2025-12-27T07:00:56.464416",
        "meta_mean_motion": 13.4258693,
        "meta_eccentricity": 0.00937787,
        "meta_inclination": 90.0353,
        "meta_ra_of_asc_node": 20.6434,
        "meta_arg_of_pericenter": 197.9639,
        "meta_mean_anomaly": 173.9697,
        "meta_ephemeris_type": 0,
        "meta_classification_type": "U",
        "meta_norad_cat_id": 19420,
        "meta_element_set_no": 999,
        "meta_rev_at_epoch": 82846,
        "meta_bstar": 0.00012904348,
        "meta_mean_motion_dot": 8.4e-07,
        "meta_mean_motion_ddot": 0,
        "tle_line1": "1 19420U 88074B   25361.29232019  .00000084  00000+0  12904-3 0  9998",
        "tle_line2": "2 19420  90.0353  20.6434 0093778 197.9639 173.9697 13.42586930828466"
      },
      "geometry": {
        "type": "Point",
        "coordinates": [
          -159.2931726770609,
          60.55239583241965
        ]
      }
    }
  ]
}